TYVAK-0172              
1 46267U 20059C   26068.62538449  .00278441  00000+0  21652-2 0  9997
2 46267  97.7214 311.0561 0003543  67.1132 293.0503 15.70916107303116
STARLINK-36419          
1 67584U 26016Z   26068.73834307  .00138768  00000+0  92013-3 0  9992
2 67584  97.2830 129.2687 0001502  86.9662 273.1775 15.75090504  6814
