[{"OBJECT_NAME":"TYVAK-0172","OBJECT_ID":"2020-059C","EPOCH":"2026-03-09T15:00:33.219936","MEAN_MOTION":15.70916107,"ECCENTRICITY":0.0003543,"INCLINATION":97.7214,"RA_OF_ASC_NODE":311.0561,"ARG_OF_PERICENTER":67.1132,"MEAN_ANOMALY":293.0503,"EPHEMERIS_TYPE":0,"CLASSIFICATION_TYPE":"U","NORAD_CAT_ID":46267,"ELEMENT_SET_NO":999,"REV_AT_EPOCH":30311,"BSTAR":0.0021652,"MEAN_MOTION_DOT":0.00278441,"MEAN_MOTION_DDOT":0},{"OBJECT_NAME":"STARLINK-36419","OBJECT_ID":"2026-016Z","EPOCH":"2026-03-09T17:43:12.841248","MEAN_MOTION":15.75090504,"ECCENTRICITY":0.00015019,"INCLINATION":97.283,"RA_OF_ASC_NODE":129.2687,"ARG_OF_PERICENTER":86.9662,"MEAN_ANOMALY":273.1775,"EPHEMERIS_TYPE":0,"CLASSIFICATION_TYPE":"U","NORAD_CAT_ID":67584,"ELEMENT_SET_NO":999,"REV_AT_EPOCH":681,"BSTAR":0.00092013411,"MEAN_MOTION_DOT":0.00138768,"MEAN_MOTION_DDOT":0}]
